{"type": "FeatureCollection", "features": [ {"type": "Feature", "properties": {"norad_id": 39634, "name": "SENTINEL-1A", "group": "resource", "lat": 49.014780959909785, "lon": -3.848710719277904, "alt_km": 690.5984222894131, "timestamp": "2025-12-26T15:29:39.095322+00:00", "meta": {"OBJECT_NAME": "SENTINEL-1A", "OBJECT_ID": "2014-016A", "EPOCH": "2025-12-26T07:02:19.267584", "MEAN_MOTION": 14.59199872, "ECCENTRICITY": 0.00012493, "INCLINATION": 98.1804, "RA_OF_ASC_NODE": 5.3342, "ARG_OF_PERICENTER": 85.5971, "MEAN_ANOMALY": 274.5371, "EPHEMERIS_TYPE": 0, "CLASSIFICATION_TYPE": "U", "NORAD_CAT_ID": 39634, "ELEMENT_SET_NO": 999, "REV_AT_EPOCH": 62480, "BSTAR": 2.4837642e-05, "MEAN_MOTION_DOT": 7.1e-07, "MEAN_MOTION_DDOT": 0}, "tle": {"line1": "1 39634U 14016A   25360.29327856  .00000071  00000+0  24838-4 0  9991", "line2": "2 39634  98.1804   5.3342 0001249  85.5971 274.5371 14.59199872624809"}}, "geometry": {"type": "Point", "coordinates": [-3.848710719277904, 49.014780959909785]}}, {"type": "Feature", "properties": {"norad_id": 39731, "name": "KAZEOSAT 1", "group": "resource", "lat": -66.50880128894066, "lon": -127.48895069723538, "alt_km": 759.6671513745014, "timestamp": "2025-12-26T15:29:39.095332+00:00", "meta": {"OBJECT_NAME": "KAZEOSAT 1", "OBJECT_ID": "2014-024A", "EPOCH": "2025-12-26T06:01:18.694848", "MEAN_MOTION": 14.42069882, "ECCENTRICITY": 0.00012302, "INCLINATION": 98.3414, "RA_OF_ASC_NODE": 71.8542, "ARG_OF_PERICENTER": 97.299, "MEAN_ANOMALY": 262.834, "EPHEMERIS_TYPE": 0, "CLASSIFICATION_TYPE": "U", "NORAD_CAT_ID": 39731, "ELEMENT_SET_NO": 999, "REV_AT_EPOCH": 61363, "BSTAR": 6.4854787e-05, "MEAN_MOTION_DOT": 1.7e-06, "MEAN_MOTION_DDOT": 0}, "tle": {"line1": "1 39731U 14024A   25360.25091082  .00000170  00000+0  64855-4 0  9996", "line2": "2 39731  98.3414  71.8542 0001230  97.2990 262.8340 14.42069882613631"}}, "geometry": {"type": "Point", "coordinates": [-127.48895069723538, -66.50880128894066]}}, {"type": "Feature", "properties": {"norad_id": 39766, "name": "ALOS-2", "group": "resource", "lat": -21.29084185275094, "lon": -87.81721380416232, "alt_km": 636.5399846551854, "timestamp": "2025-12-26T15:29:39.095342+00:00", "meta": {"OBJECT_NAME": "ALOS-2", "OBJECT_ID": "2014-029A", "EPOCH": "2025-12-26T06:28:15.297600", "MEAN_MOTION": 14.79473117, "ECCENTRICITY": 0.00013733, "INCLINATION": 97.9217, "RA_OF_ASC_NODE": 94.9228, "ARG_OF_PERICENTER": 98.5268, "MEAN_ANOMALY": 261.6099, "EPHEMERIS_TYPE": 0, "CLASSIFICATION_TYPE": "U", "NORAD_CAT_ID": 39766, "ELEMENT_SET_NO": 999, "REV_AT_EPOCH": 62601, "BSTAR": 0.00030578847, "MEAN_MOTION_DOT": 2.233e-05, "MEAN_MOTION_DDOT": 0}, "tle": {"line1": "1 39766U 14029A   25360.26962150  .00002233  00000+0  30579-3 0  9990", "line2": "2 39766  97.9217  94.9228 0001373  98.5268 261.6099 14.79473117626016"}}, "geometry": {"type": "Point", "coordinates": [-87.81721380416232, -21.29084185275094]}}, {"type": "Feature", "properties": {"norad_id": 40010, "name": "KAZEOSAT 2", "group": "resource", "lat": 35.957663232559455, "lon": -161.27899358778973, "alt_km": 613.898681964215, "timestamp": "2025-12-26T15:29:39.095352+00:00", "meta": {"OBJECT_NAME": "KAZEOSAT 2", "OBJECT_ID": "2014-033A", "EPOCH": "2025-12-26T07:14:46.238784", "MEAN_MOTION": 14.85187635, "ECCENTRICITY": 0.0008809, "INCLINATION": 97.5496, "RA_OF_ASC_NODE": 203.916, "ARG_OF_PERICENTER": 160.429, "MEAN_ANOMALY": 199.7266, "EPHEMERIS_TYPE": 0, "CLASSIFICATION_TYPE": "U", "NORAD_CAT_ID": 40010, "ELEMENT_SET_NO": 999, "REV_AT_EPOCH": 62329, "BSTAR": 2.5701412e-05, "MEAN_MOTION_DOT": 1.7e-06, "MEAN_MOTION_DDOT": 0}, "tle": {"line1": "1 40010U 14033A   25360.30192406  .00000170  00000+0  25701-4 0  9993", "line2": "2 40010  97.5496 203.9160 0008809 160.4290 199.7266 14.85187635623295"}}, "geometry": {"type": "Point", "coordinates": [-161.27899358778973, 35.957663232559455]}}, {"type": "Feature", "properties": {"norad_id": 40011, "name": "HODOYOSHI-4", "group": "resource", "lat": -60.033425005636644, "lon": -4.438967892148141, "alt_km": 611.6961652750742, "timestamp": "2025-12-26T15:29:39.095362+00:00", "meta": {"OBJECT_NAME": "HODOYOSHI-4", "OBJECT_ID": "2014-033B", "EPOCH": "2025-12-26T06:20:39.612768", "MEAN_MOTION": 14.87526094, "ECCENTRICITY": 0.00242833, "INCLINATION": 97.5412, "RA_OF_ASC_NODE": 188.4817, "ARG_OF_PERICENTER": 155.8041, "MEAN_ANOMALY": 204.4322, "EPHEMERIS_TYPE": 0, "CLASSIFICATION_TYPE": "U", "NORAD_CAT_ID": 40011, "ELEMENT_SET_NO": 999, "REV_AT_EPOCH": 62309, "BSTAR": 9.6177556e-05, "MEAN_MOTION_DOT": 8.25e-06, "MEAN_MOTION_DDOT": 0}, "tle": {"line1": "1 40011U 14033B   25360.26434737  .00000825  00000+0  96178-4 0  9998", "line2": "2 40011  97.5412 188.4817 0024283 155.8041 204.4322 14.87526094623099"}}, "geometry": {"type": "Point", "coordinates": [-4.438967892148141, -60.033425005636644]}}, {"type": "Feature", "properties": {"norad_id": 40013, "name": "DEIMOS-2", "group": "resource", "lat": -46.92856925021162, "lon": -115.79637823571923, "alt_km": 596.1662487075664, "timestamp": "2025-12-26T15:29:39.095372+00:00", "meta": {"OBJECT_NAME": "DEIMOS-2", "OBJECT_ID": "2014-033D", "EPOCH": "2025-12-26T06:03:20.473056", "MEAN_MOTION": 14.93028659, "ECCENTRICITY": 0.00013434, "INCLINATION": 97.6046, "RA_OF_ASC_NODE": 235.6071, "ARG_OF_PERICENTER": 108.0641, "MEAN_ANOMALY": 252.0725, "EPHEMERIS_TYPE": 0, "CLASSIFICATION_TYPE": "U", "NORAD_CAT_ID": 40013, "ELEMENT_SET_NO": 999, "REV_AT_EPOCH": 61191, "BSTAR": 0.00021486028, "MEAN_MOTION_DOT": 2.18e-05, "MEAN_MOTION_DDOT": 0}, "tle": {"line1": "1 40013U 14033D   25360.25232029  .00002180  00000+0  21486-3 0  9994", "line2": "2 40013  97.6046 235.6071 0001343 108.0641 252.0725 14.93028659611915"}}, "geometry": {"type": "Point", "coordinates": [-115.79637823571923, -46.92856925021162]}}, {"type": "Feature", "properties": {"norad_id": 40015, "name": "HODOYOSHI-3", "group": "resource", "lat": 31.785972586294367, "lon": 161.11751351628618, "alt_km": 634.6172730270391, "timestamp": "2025-12-26T15:29:39.095383+00:00", "meta": {"OBJECT_NAME": "HODOYOSHI-3", "OBJECT_ID": "2014-033F", "EPOCH": "2025-12-26T05:38:42.730656", "MEAN_MOTION": 14.84851914, "ECCENTRICITY": 0.00326024, "INCLINATION": 97.6208, "RA_OF_ASC_NODE": 165.4843, "ARG_OF_PERICENTER": 202.148, "MEAN_ANOMALY": 157.8329, "EPHEMERIS_TYPE": 0, "CLASSIFICATION_TYPE": "U", "NORAD_CAT_ID": 40015, "ELEMENT_SET_NO": 999, "REV_AT_EPOCH": 62195, "BSTAR": 0.00020161104, "MEAN_MOTION_DOT": 1.677e-05, "MEAN_MOTION_DDOT": 0}, "tle": {"line1": "1 40015U 14033F   25360.23521679  .00001677  00000+0  20161-3 0  9995", "line2": "2 40015  97.6208 165.4843 0032602 202.1480 157.8329 14.84851914621958"}}, "geometry": {"type": "Point", "coordinates": [161.11751351628618, 31.785972586294367]}}, {"type": "Feature", "properties": {"norad_id": 40053, "name": "SPOT 7", "group": "resource", "lat": -8.627997700086878, "lon": 63.635585859027294, "alt_km": 694.7629507944139, "timestamp": "2025-12-26T15:29:39.095393+00:00", "meta": {"OBJECT_NAME": "SPOT 7", "OBJECT_ID": "2014-034A", "EPOCH": "2025-12-26T05:40:12.628992", "MEAN_MOTION": 14.60750859, "ECCENTRICITY": 0.00015102, "INCLINATION": 98.0883, "RA_OF_ASC_NODE": 61.9994, "ARG_OF_PERICENTER": 81.2033, "MEAN_ANOMALY": 278.9339, "EPHEMERIS_TYPE": 0, "CLASSIFICATION_TYPE": "U", "NORAD_CAT_ID": 40053, "ELEMENT_SET_NO": 999, "REV_AT_EPOCH": 61188, "BSTAR": 0.00014344588, "MEAN_MOTION_DOT": 6.54e-06, "MEAN_MOTION_DDOT": 0}, "tle": {"line1": "1 40053U 14034A   25360.23625728  .00000654  00000+0  14345-3 0  9999", "line2": "2 40053  98.0883  61.9994 0001510  81.2033 278.9339 14.60750859611882"}}, "geometry": {"type": "Point", "coordinates": [63.635585859027294, -8.627997700086878]}}, {"type": "Feature", "properties": {"norad_id": 40072, "name": "SKYSAT-B", "group": "resource", "lat": 2.819322320481893, "lon": 125.5024575254182, "alt_km": 606.7786453994113, "timestamp": "2025-12-26T15:29:39.095403+00:00", "meta": {"OBJECT_NAME": "SKYSAT-B", "OBJECT_ID": "2014-037D", "EPOCH": "2025-12-26T06:37:43.106304", "MEAN_MOTION": 14.87375186, "ECCENTRICITY": 0.00068695, "INCLINATION": 98.363, "RA_OF_ASC_NODE": 304.6984, "ARG_OF_PERICENTER": 112.8088, "MEAN_ANOMALY": 247.3853, "EPHEMERIS_TYPE": 0, "CLASSIFICATION_TYPE": "U", "NORAD_CAT_ID": 40072, "ELEMENT_SET_NO": 999, "REV_AT_EPOCH": 62025, "BSTAR": 0.00021571569, "MEAN_MOTION_DOT": 1.889e-05, "MEAN_MOTION_DDOT": 0}, "tle": {"line1": "1 40072U 14037D   25360.27619336  .00001889  00000+0  21572-3 0  9996", "line2": "2 40072  98.3630 304.6984 0006869 112.8088 247.3853 14.87375186620252"}}, "geometry": {"type": "Point", "coordinates": [125.5024575254182, 2.819322320481893]}}, {"type": "Feature", "properties": {"norad_id": 40115, "name": "WORLDVIEW-3 (WV-3)", "group": "resource", "lat": -50.64433773135027, "lon": 82.47421165745644, "alt_km": 622.98462579029, "timestamp": "2025-12-26T15:29:39.095413+00:00", "meta": {"OBJECT_NAME": "WORLDVIEW-3 (WV-3)", "OBJECT_ID": "2014-048A", "EPOCH": "2025-12-26T06:01:12.024768", "MEAN_MOTION": 14.84678254, "ECCENTRICITY": 0.00020833, "INCLINATION": 97.8763, "RA_OF_ASC_NODE": 72.3663, "ARG_OF_PERICENTER": 127.685, "MEAN_ANOMALY": 232.4554, "EPHEMERIS_TYPE": 0, "CLASSIFICATION_TYPE": "U", "NORAD_CAT_ID": 40115, "ELEMENT_SET_NO": 999, "REV_AT_EPOCH": 61624, "BSTAR": 0.00014057414, "MEAN_MOTION_DOT": 1.136e-05, "MEAN_MOTION_DDOT": 0}, "tle": {"line1": "1 40115U 14048A   25360.25083362  .00001136  00000+0  14057-3 0  9993", "line2": "2 40115  97.8763  72.3663 0002083 127.6850 232.4554 14.84678254616245"}}, "geometry": {"type": "Point", "coordinates": [82.47421165745644, -50.64433773135027]}}]}